ONEWEB-0033             
1 45142U 20008M   25311.76877667  .00001070  00000+0  30279-2 0  9992
2 45142  87.8784  80.4245 0001871  98.5259 261.6080 13.10388147279218
ONEWEB-0035             
1 45143U 20008N   25311.64679808  .00000359  00000+0  99189-3 0  9992
2 45143  87.8787  80.4497 0001665  96.8029 263.3288 13.10377307278920
ONEWEB-0036             
1 45144U 20008P   25311.78954425 -.00000180  00000+0 -55105-3 0  9993
2 45144  87.8796  80.3763 0001268 103.3188 256.8080 13.10377137279373
ONEWEB-0038             
1 45145U 20008Q   25311.83194936  .00000229  00000+0  60941-3 0  9999
2 45145  87.8860  65.1397 0003063 126.9351 233.2058 13.11419006281312
ONEWEB-0039             
1 45146U 20008R   25311.61939734 -.00000621  00000+0 -18168-2 0  9990
2 45146  87.8790  80.4250 0001332 117.6336 242.4927 13.10371458279142
ONEWEB-0040             
1 45147U 20008S   25311.84183336 -.00000392  00000+0 -11582-2 0  9993
2 45147  87.8785  80.4095 0001570 102.4632 257.6671 13.10371201278878
ONEWEB-0043             
1 45149U 20008U   25311.76714095 -.00000526  00000+0 -15429-2 0  9991
2 45149  87.8786  80.4058 0001124 108.2469 251.8781 13.10371132279183
ONEWEB-0044             
1 45150U 20008V   25311.79536878  .00000116  00000+0  29530-3 0  9999
2 45150  87.8789  80.3910 0001293 103.3353 256.7918 13.10376893279487
