<?xml version="1.0" encoding="UTF-8"?>
<ndm xmlns:xsi="http://www.w3.org/2001/XMLSchema-instance" xsi:noNamespaceSchemaLocation="https://sanaregistry.org/r/ndmxml_unqualified/ndmxml-2.0.0-master-2.0.xsd">
<omm id="CCSDS_OMM_VERS" version="2.0">
<header><CREATION_DATE/><ORIGINATOR/></header><body><segment><metadata><OBJECT_NAME>ONEWEB-0033</OBJECT_NAME><OBJECT_ID>2020-008M</OBJECT_ID><CENTER_NAME>EARTH</CENTER_NAME><REF_FRAME>TEME</REF_FRAME><TIME_SYSTEM>UTC</TIME_SYSTEM><MEAN_ELEMENT_THEORY>SGP4</MEAN_ELEMENT_THEORY></metadata><data><meanElements><EPOCH>2025-11-07T18:27:02.304288</EPOCH><MEAN_MOTION>13.10388147</MEAN_MOTION><ECCENTRICITY>.0001871</ECCENTRICITY><INCLINATION>87.8784</INCLINATION><RA_OF_ASC_NODE>80.4245</RA_OF_ASC_NODE><ARG_OF_PERICENTER>98.5259</ARG_OF_PERICENTER><MEAN_ANOMALY>261.6080</MEAN_ANOMALY></meanElements><tleParameters><EPHEMERIS_TYPE>0</EPHEMERIS_TYPE><CLASSIFICATION_TYPE>U</CLASSIFICATION_TYPE><NORAD_CAT_ID>45142</NORAD_CAT_ID><ELEMENT_SET_NO>999</ELEMENT_SET_NO><REV_AT_EPOCH>27921</REV_AT_EPOCH><BSTAR>.30279E-2</BSTAR><MEAN_MOTION_DOT>.107E-4</MEAN_MOTION_DOT><MEAN_MOTION_DDOT>0</MEAN_MOTION_DDOT></tleParameters></data></segment></body></omm>
<omm id="CCSDS_OMM_VERS" version="2.0">
<header><CREATION_DATE/><ORIGINATOR/></header><body><segment><metadata><OBJECT_NAME>ONEWEB-0035</OBJECT_NAME><OBJECT_ID>2020-008N</OBJECT_ID><CENTER_NAME>EARTH</CENTER_NAME><REF_FRAME>TEME</REF_FRAME><TIME_SYSTEM>UTC</TIME_SYSTEM><MEAN_ELEMENT_THEORY>SGP4</MEAN_ELEMENT_THEORY></metadata><data><meanElements><EPOCH>2025-11-07T15:31:23.354112</EPOCH><MEAN_MOTION>13.10377307</MEAN_MOTION><ECCENTRICITY>.0001665</ECCENTRICITY><INCLINATION>87.8787</INCLINATION><RA_OF_ASC_NODE>80.4497</RA_OF_ASC_NODE><ARG_OF_PERICENTER>96.8029</ARG_OF_PERICENTER><MEAN_ANOMALY>263.3288</MEAN_ANOMALY></meanElements><tleParameters><EPHEMERIS_TYPE>0</EPHEMERIS_TYPE><CLASSIFICATION_TYPE>U</CLASSIFICATION_TYPE><NORAD_CAT_ID>45143</NORAD_CAT_ID><ELEMENT_SET_NO>999</ELEMENT_SET_NO><REV_AT_EPOCH>27892</REV_AT_EPOCH><BSTAR>.99189E-3</BSTAR><MEAN_MOTION_DOT>.359E-5</MEAN_MOTION_DOT><MEAN_MOTION_DDOT>0</MEAN_MOTION_DDOT></tleParameters></data></segment></body></omm>
<omm id="CCSDS_OMM_VERS" version="2.0">
<header><CREATION_DATE/><ORIGINATOR/></header><body><segment><metadata><OBJECT_NAME>ONEWEB-0036</OBJECT_NAME><OBJECT_ID>2020-008P</OBJECT_ID><CENTER_NAME>EARTH</CENTER_NAME><REF_FRAME>TEME</REF_FRAME><TIME_SYSTEM>UTC</TIME_SYSTEM><MEAN_ELEMENT_THEORY>SGP4</MEAN_ELEMENT_THEORY></metadata><data><meanElements><EPOCH>2025-11-07T18:56:56.623200</EPOCH><MEAN_MOTION>13.10377137</MEAN_MOTION><ECCENTRICITY>.0001268</ECCENTRICITY><INCLINATION>87.8796</INCLINATION><RA_OF_ASC_NODE>80.3763</RA_OF_ASC_NODE><ARG_OF_PERICENTER>103.3188</ARG_OF_PERICENTER><MEAN_ANOMALY>256.8080</MEAN_ANOMALY></meanElements><tleParameters><EPHEMERIS_TYPE>0</EPHEMERIS_TYPE><CLASSIFICATION_TYPE>U</CLASSIFICATION_TYPE><NORAD_CAT_ID>45144</NORAD_CAT_ID><ELEMENT_SET_NO>999</ELEMENT_SET_NO><REV_AT_EPOCH>27937</REV_AT_EPOCH><BSTAR>-.55105E-3</BSTAR><MEAN_MOTION_DOT>-.18E-5</MEAN_MOTION_DOT><MEAN_MOTION_DDOT>0</MEAN_MOTION_DDOT></tleParameters></data></segment></body></omm>
<omm id="CCSDS_OMM_VERS" version="2.0">
<header><CREATION_DATE/><ORIGINATOR/></header><body><segment><metadata><OBJECT_NAME>ONEWEB-0038</OBJECT_NAME><OBJECT_ID>2020-008Q</OBJECT_ID><CENTER_NAME>EARTH</CENTER_NAME><REF_FRAME>TEME</REF_FRAME><TIME_SYSTEM>UTC</TIME_SYSTEM><MEAN_ELEMENT_THEORY>SGP4</MEAN_ELEMENT_THEORY></metadata><data><meanElements><EPOCH>2025-11-07T19:58:00.424704</EPOCH><MEAN_MOTION>13.11419006</MEAN_MOTION><ECCENTRICITY>.0003063</ECCENTRICITY><INCLINATION>87.8860</INCLINATION><RA_OF_ASC_NODE>65.1397</RA_OF_ASC_NODE><ARG_OF_PERICENTER>126.9351</ARG_OF_PERICENTER><MEAN_ANOMALY>233.2058</MEAN_ANOMALY></meanElements><tleParameters><EPHEMERIS_TYPE>0</EPHEMERIS_TYPE><CLASSIFICATION_TYPE>U</CLASSIFICATION_TYPE><NORAD_CAT_ID>45145</NORAD_CAT_ID><ELEMENT_SET_NO>999</ELEMENT_SET_NO><REV_AT_EPOCH>28131</REV_AT_EPOCH><BSTAR>.60941E-3</BSTAR><MEAN_MOTION_DOT>.229E-5</MEAN_MOTION_DOT><MEAN_MOTION_DDOT>0</MEAN_MOTION_DDOT></tleParameters></data></segment></body></omm>
<omm id="CCSDS_OMM_VERS" version="2.0">
<header><CREATION_DATE/><ORIGINATOR/></header><body><segment><metadata><OBJECT_NAME>ONEWEB-0039</OBJECT_NAME><OBJECT_ID>2020-008R</OBJECT_ID><CENTER_NAME>EARTH</CENTER_NAME><REF_FRAME>TEME</REF_FRAME><TIME_SYSTEM>UTC</TIME_SYSTEM><MEAN_ELEMENT_THEORY>SGP4</MEAN_ELEMENT_THEORY></metadata><data><meanElements><EPOCH>2025-11-07T14:51:55.930176</EPOCH><MEAN_MOTION>13.10371458</MEAN_MOTION><ECCENTRICITY>.0001332</ECCENTRICITY><INCLINATION>87.8790</INCLINATION><RA_OF_ASC_NODE>80.4250</RA_OF_ASC_NODE><ARG_OF_PERICENTER>117.6336</ARG_OF_PERICENTER><MEAN_ANOMALY>242.4927</MEAN_ANOMALY></meanElements><tleParameters><EPHEMERIS_TYPE>0</EPHEMERIS_TYPE><CLASSIFICATION_TYPE>U</CLASSIFICATION_TYPE><NORAD_CAT_ID>45146</NORAD_CAT_ID><ELEMENT_SET_NO>999</ELEMENT_SET_NO><REV_AT_EPOCH>27914</REV_AT_EPOCH><BSTAR>-.18168E-2</BSTAR><MEAN_MOTION_DOT>-.621E-5</MEAN_MOTION_DOT><MEAN_MOTION_DDOT>0</MEAN_MOTION_DDOT></tleParameters></data></segment></body></omm>
<omm id="CCSDS_OMM_VERS" version="2.0">
<header><CREATION_DATE/><ORIGINATOR/></header><body><segment><metadata><OBJECT_NAME>ONEWEB-0040</OBJECT_NAME><OBJECT_ID>2020-008S</OBJECT_ID><CENTER_NAME>EARTH</CENTER_NAME><REF_FRAME>TEME</REF_FRAME><TIME_SYSTEM>UTC</TIME_SYSTEM><MEAN_ELEMENT_THEORY>SGP4</MEAN_ELEMENT_THEORY></metadata><data><meanElements><EPOCH>2025-11-07T20:12:14.402304</EPOCH><MEAN_MOTION>13.10371201</MEAN_MOTION><ECCENTRICITY>.000157</ECCENTRICITY><INCLINATION>87.8785</INCLINATION><RA_OF_ASC_NODE>80.4095</RA_OF_ASC_NODE><ARG_OF_PERICENTER>102.4632</ARG_OF_PERICENTER><MEAN_ANOMALY>257.6671</MEAN_ANOMALY></meanElements><tleParameters><EPHEMERIS_TYPE>0</EPHEMERIS_TYPE><CLASSIFICATION_TYPE>U</CLASSIFICATION_TYPE><NORAD_CAT_ID>45147</NORAD_CAT_ID><ELEMENT_SET_NO>999</ELEMENT_SET_NO><REV_AT_EPOCH>27887</REV_AT_EPOCH><BSTAR>-.11582E-2</BSTAR><MEAN_MOTION_DOT>-.392E-5</MEAN_MOTION_DOT><MEAN_MOTION_DDOT>0</MEAN_MOTION_DDOT></tleParameters></data></segment></body></omm>
<omm id="CCSDS_OMM_VERS" version="2.0">
<header><CREATION_DATE/><ORIGINATOR/></header><body><segment><metadata><OBJECT_NAME>ONEWEB-0043</OBJECT_NAME><OBJECT_ID>2020-008U</OBJECT_ID><CENTER_NAME>EARTH</CENTER_NAME><REF_FRAME>TEME</REF_FRAME><TIME_SYSTEM>UTC</TIME_SYSTEM><MEAN_ELEMENT_THEORY>SGP4</MEAN_ELEMENT_THEORY></metadata><data><meanElements><EPOCH>2025-11-07T18:24:40.978080</EPOCH><MEAN_MOTION>13.10371132</MEAN_MOTION><ECCENTRICITY>.0001124</ECCENTRICITY><INCLINATION>87.8786</INCLINATION><RA_OF_ASC_NODE>80.4058</RA_OF_ASC_NODE><ARG_OF_PERICENTER>108.2469</ARG_OF_PERICENTER><MEAN_ANOMALY>251.8781</MEAN_ANOMALY></meanElements><tleParameters><EPHEMERIS_TYPE>0</EPHEMERIS_TYPE><CLASSIFICATION_TYPE>U</CLASSIFICATION_TYPE><NORAD_CAT_ID>45149</NORAD_CAT_ID><ELEMENT_SET_NO>999</ELEMENT_SET_NO><REV_AT_EPOCH>27918</REV_AT_EPOCH><BSTAR>-.15429E-2</BSTAR><MEAN_MOTION_DOT>-.526E-5</MEAN_MOTION_DOT><MEAN_MOTION_DDOT>0</MEAN_MOTION_DDOT></tleParameters></data></segment></body></omm>
<omm id="CCSDS_OMM_VERS" version="2.0">
<header><CREATION_DATE/><ORIGINATOR/></header><body><segment><metadata><OBJECT_NAME>ONEWEB-0044</OBJECT_NAME><OBJECT_ID>2020-008V</OBJECT_ID><CENTER_NAME>EARTH</CENTER_NAME><REF_FRAME>TEME</REF_FRAME><TIME_SYSTEM>UTC</TIME_SYSTEM><MEAN_ELEMENT_THEORY>SGP4</MEAN_ELEMENT_THEORY></metadata><data><meanElements><EPOCH>2025-11-07T19:05:19.862592</EPOCH><MEAN_MOTION>13.10376893</MEAN_MOTION><ECCENTRICITY>.0001293</ECCENTRICITY><INCLINATION>87.8789</INCLINATION><RA_OF_ASC_NODE>80.3910</RA_OF_ASC_NODE><ARG_OF_PERICENTER>103.3353</ARG_OF_PERICENTER><MEAN_ANOMALY>256.7918</MEAN_ANOMALY></meanElements><tleParameters><EPHEMERIS_TYPE>0</EPHEMERIS_TYPE><CLASSIFICATION_TYPE>U</CLASSIFICATION_TYPE><NORAD_CAT_ID>45150</NORAD_CAT_ID><ELEMENT_SET_NO>999</ELEMENT_SET_NO><REV_AT_EPOCH>27948</REV_AT_EPOCH><BSTAR>.2953E-3</BSTAR><MEAN_MOTION_DOT>.116E-5</MEAN_MOTION_DOT><MEAN_MOTION_DDOT>0</MEAN_MOTION_DDOT></tleParameters></data></segment></body></omm>

</ndm>
